HIMAWARI-8              
1 40267U 14060A   24030.87306248 -.00000262  00000+0  00000+0 0  9996
2 40267   0.0400 237.6181 0000798  57.7606 289.1709  1.00272710 34056
